1 90000           19337.16666667  .00000053  00000-0  14057-3 0 00007
2 90000 087.8564 024.2381 0009836 271.3463 155.1437 13.15256448000017
1 90001           19337.16666667  .00000254  00000-0  67751-3 0 00000
2 90001 087.8564 024.2381 0009836 271.3329 164.1573 13.15256248000018
1 90002           19337.16666667  .00000419  00000-0  11199-2 0 00008
2 90002 087.8564 024.2381 0009835 271.3160 173.1742 13.15256094000018
1 90003           19337.16666667  .00000566  00000-0  15124-2 0 00004
2 90003 087.8564 024.2381 0009834 271.2938 182.1965 13.15255959000016
1 90004           19337.16666667  .00000686  00000-0  18308-2 0 00005
2 90004 087.8565 024.2381 0009834 271.2659 191.2245 13.15255850000010
1 90005           19337.16666667  .00000740  00000-0  19767-2 0 00007
2 90005 087.8565 024.2381 0009835 271.2340 200.2565 13.15255812000013
1 90006           19337.16666667  .00000744  00000-0  19877-2 0 00004
2 90006 087.8565 024.2381 0009838 271.2007 209.2897 13.15255823000016
1 90007           19337.16666667  .00000702  00000-0  18756-2 0 00004
2 90007 087.8565 024.2381 0009842 271.1698 218.3206 13.15255875000019
1 90008           19337.16666667  .00000623  00000-0  16631-2 0 00007
2 90008 087.8565 024.2381 0009848 271.1451 227.3452 13.15255960000011
1 90009           19337.16666667  .00000517  00000-0  13796-2 0 00009
2 90009 087.8565 024.2381 0009855 271.1301 236.3601 13.15256066000018
1 90010           19337.16666667  .00000396  00000-0  10570-2 0 00003
2 90010 087.8565 024.2381 0009863 271.1269 245.3633 13.15256181000015
1 90011           19337.16666667  .00000243  00000-0  64967-3 0 00005
2 90011 087.8565 024.2381 0009870 271.1361 254.3540 13.15256318000016
1 90012           19337.16666667  .00000112  00000-0  29813-3 0 00002
2 90012 087.8565 024.2381 0009877 271.1559 263.3341 13.15256430000017
1 90013           19337.16666667 -.00000003  00000-0 -68534-5 0 00009
2 90013 087.8565 024.2381 0009882 271.1838 272.3061 13.15256521000014
1 90014           19337.16666667 -.00000090  00000-0 -24108-3 0 00003
2 90014 087.8565 024.2381 0009886 271.2160 281.2739 13.15256582000016
1 90015           19337.16666667 -.00000128  00000-0 -34294-3 0 00003
2 90015 087.8565 024.2381 0009888 271.2486 290.2413 13.15256595000013
1 90016           19337.16666667 -.00000160  00000-0 -42780-3 0 00009
2 90016 087.8564 024.2381 0009888 271.2786 299.2114 13.15256600000010
1 90017           19337.16666667 -.00000154  00000-0 -41245-3 0 00008
2 90017 087.8564 024.2381 0009888 271.3038 308.1862 13.15256571000019
1 90018           19337.16666667 -.00000117  00000-0 -31139-3 0 00009
2 90018 087.8564 024.2381 0009887 271.3239 317.1662 13.15256517000010
1 90019           19337.16666667 -.00000056  00000-0 -15054-3 0 00000
2 90019 087.8564 024.2381 0009887 271.3398 326.1504 13.15256447000014
1 90020           19337.16666667  .00000014  00000-0  36658-4 0 00008
2 90020 087.8564 024.2381 0009887 271.3538 335.1364 13.15256374000015
1 90021           19337.16666667  .00000080  00000-0  21381-3 0 00008
2 90021 087.8564 024.2381 0009887 271.3686 344.1216 13.15256312000018
1 90022           19337.16666667  .00000114  00000-0  30495-3 0 00003
2 90022 087.8564 024.2381 0009888 271.3867 353.1036 13.15256294000010
1 90023           19337.16666667  .00000138  00000-0  36811-3 0 00008
2 90023 087.8564 024.2381 0009888 271.4097 002.0805 13.15256290000017
1 90024           19337.16666667  .00000145  00000-0  38708-3 0 00004
2 90024 087.8565 024.2381 0009888 271.4379 011.0523 13.15256304000015
1 90025           19337.16666667  .00000100  00000-0  26619-3 0 00004
2 90025 087.8565 024.2381 0009887 271.4698 020.0203 13.15256379000016
1 90026           19337.16666667  .00000020  00000-0  53175-4 0 00004
2 90026 087.8565 024.2381 0009884 271.5026 028.9874 13.15256487000011
1 90027           19337.16666667 -.00000088  00000-0 -23477-3 0 00002
2 90027 087.8565 024.2381 0009879 271.5327 037.9572 13.15256621000015
1 90028           19337.16666667 -.00000214  00000-0 -57099-3 0 00001
2 90028 087.8565 024.2381 0009873 271.5563 046.9334 13.15256769000011
1 90029           19337.16666667 -.00000346  00000-0 -92313-3 0 00006
2 90029 087.8565 024.2381 0009866 271.5702 055.9194 13.15256919000010
1 90030           19337.16666667 -.00000471  00000-0 -12572-2 0 00005
2 90030 087.8565 024.2381 0009858 271.5722 064.9173 13.15257056000015
1 90031           19337.16666667 -.00000607  00000-0 -16205-2 0 00004
2 90031 087.8565 024.2381 0009851 271.5619 073.9275 13.15257193000019
1 90032           19337.16666667 -.00000701  00000-0 -18712-2 0 00005
2 90032 087.8565 024.2381 0009844 271.5410 082.9483 13.15257285000014
1 90033           19337.16666667 -.00000757  00000-0 -20219-2 0 00002
2 90033 087.8565 024.2381 0009839 271.5123 091.9770 13.15257333000013
1 90034           19337.16666667 -.00000769  00000-0 -20523-2 0 00004
2 90034 087.8565 024.2381 0009836 271.4795 101.0098 13.15257332000010
1 90035           19337.16666667 -.00000714  00000-0 -19058-2 0 00006
2 90035 087.8565 024.2381 0009834 271.4467 110.0427 13.15257266000017
1 90036           19337.16666667 -.00000638  00000-0 -17037-2 0 00007
2 90036 087.8564 024.2381 0009834 271.4170 119.0725 13.15257174000016
1 90037           19337.16666667 -.00000513  00000-0 -13700-2 0 00003
2 90037 087.8564 024.2381 0009835 271.3924 128.0972 13.15257034000013
1 90038           19337.16666667 -.00000347  00000-0 -92708-3 0 00005
2 90038 087.8564 024.2381 0009835 271.3735 137.1163 13.15256857000019
1 90039           19337.16666667 -.00000153  00000-0 -40938-3 0 00009
2 90039 087.8564 024.2381 0009836 271.3589 146.1310 13.15256656000019
